{
  "type": "FeatureCollection",
  "features": [
    {
      "type": "Feature",
      "properties": {
        "norad_id": 41330,
        "name": "COSMOS 2514 (751)",
        "group": "gnss",
        "lat": 60.795772634627525,
        "lon": 15.482991054531992,
        "alt_km": 19148.90335573828,
        "timestamp": "2025-12-11T05:00:26.552209+00:00",
        "meta_object_name": "COSMOS 2514 (751)",
        "meta_object_id": "2016-008A",
        "meta_epoch": "2025-12-10T04:09:27.230112",
        "meta_mean_motion": 2.13102584,
        "meta_eccentricity": 0.00121793,
        "meta_inclination": 65.1353,
        "meta_ra_of_asc_node": 319.4918,
        "meta_arg_of_pericenter": 220.0546,
        "meta_mean_anomaly": 139.8533,
        "meta_ephemeris_type": 0,
        "meta_classification_type": "U",
        "meta_norad_cat_id": 41330,
        "meta_element_set_no": 999,
        "meta_rev_at_epoch": 7659,
        "meta_bstar": 0,
        "meta_mean_motion_dot": -5e-07,
        "meta_mean_motion_ddot": 0,
        "tle_line1": "1 41330U 16008A   25344.17323183 -.00000050  00000+0  00000+0 0  9996",
        "tle_line2": "2 41330  65.1353 319.4918 0012179 220.0546 139.8533  2.13102584 76595"
      },
      "geometry": {
        "type": "Point",
        "coordinates": [
          15.482991054531992,
          60.795772634627525
        ]
      }
    },
    {
      "type": "Feature",
      "properties": {
        "norad_id": 41384,
        "name": "IRNSS-1F",
        "group": "gnss",
        "lat": 4.85889738507858,
        "lon": -172.62657621400606,
        "alt_km": 35792.32430536683,
        "timestamp": "2025-12-11T05:00:26.552220+00:00",
        "meta_object_name": "IRNSS-1F",
        "meta_object_id": "2016-015A",
        "meta_epoch": "2025-12-10T20:22:30.395424",
        "meta_mean_motion": 1.00271518,
        "meta_eccentricity": 0.00225227,
        "meta_inclination": 4.8758,
        "meta_ra_of_asc_node": 101.3469,
        "meta_arg_of_pericenter": 180.4448,
        "meta_mean_anomaly": 136.0127,
        "meta_ephemeris_type": 0,
        "meta_classification_type": "U",
        "meta_norad_cat_id": 41384,
        "meta_element_set_no": 999,
        "meta_rev_at_epoch": 3577,
        "meta_bstar": 0,
        "meta_mean_motion_dot": 1.63e-06,
        "meta_mean_motion_ddot": 0,
        "tle_line1": "1 41384U 16015A   25344.84896291  .00000163  00000+0  00000+0 0  9996",
        "tle_line2": "2 41384   4.8758 101.3469 0022522 180.4448 136.0127  1.00271518 35777"
      },
      "geometry": {
        "type": "Point",
        "coordinates": [
          -172.62657621400606,
          4.85889738507858
        ]
      }
    },
    {
      "type": "Feature",
      "properties": {
        "norad_id": 41434,
        "name": "BEIDOU-2 IGSO-6 (C13)",
        "group": "gnss",
        "lat": -23.95596048923113,
        "lon": -125.17648678516251,
        "alt_km": 35547.73415436383,
        "timestamp": "2025-12-11T05:00:26.552232+00:00",
        "meta_object_name": "BEIDOU-2 IGSO-6 (C13)",
        "meta_object_id": "2016-021A",
        "meta_epoch": "2025-12-03T15:53:57.382080",
        "meta_mean_motion": 1.00293531,
        "meta_eccentricity": 0.00596341,
        "meta_inclination": 59.9536,
        "meta_ra_of_asc_node": 39.991,
        "meta_arg_of_pericenter": 228.541,
        "meta_mean_anomaly": 135.1173,
        "meta_ephemeris_type": 0,
        "meta_classification_type": "U",
        "meta_norad_cat_id": 41434,
        "meta_element_set_no": 999,
        "meta_rev_at_epoch": 3552,
        "meta_bstar": 0,
        "meta_mean_motion_dot": -1.61e-06,
        "meta_mean_motion_ddot": 0,
        "tle_line1": "1 41434U 16021A   25337.66246970 -.00000161  00000+0  00000+0 0  9993",
        "tle_line2": "2 41434  59.9536  39.9910 0059634 228.5410 135.1173  1.00293531 35525"
      },
      "geometry": {
        "type": "Point",
        "coordinates": [
          -125.17648678516251,
          -23.95596048923113
        ]
      }
    },
    {
      "type": "Feature",
      "properties": {
        "norad_id": 41469,
        "name": "IRNSS-1G",
        "group": "gnss",
        "lat": -0.20188627300484116,
        "lon": -75.64127861197628,
        "alt_km": 35809.714729198204,
        "timestamp": "2025-12-11T05:00:26.552247+00:00",
        "meta_object_name": "IRNSS-1G",
        "meta_object_id": "2016-027A",
        "meta_epoch": "2025-12-10T07:18:31.930272",
        "meta_mean_motion": 1.00250551,
        "meta_eccentricity": 0.00046359,
        "meta_inclination": 4.7271,
        "meta_ra_of_asc_node": 102.1628,
        "meta_arg_of_pericenter": 335.3904,
        "meta_mean_anomaly": 240.5348,
        "meta_ephemeris_type": 0,
        "meta_classification_type": "U",
        "meta_norad_cat_id": 41469,
        "meta_element_set_no": 999,
        "meta_rev_at_epoch": 3528,
        "meta_bstar": 0,
        "meta_mean_motion_dot": -3.34e-06,
        "meta_mean_motion_ddot": 0,
        "tle_line1": "1 41469U 16027A   25344.30453623 -.00000334  00000+0  00000+0 0  9993",
        "tle_line2": "2 41469   4.7271 102.1628 0004635 335.3904 240.5348  1.00250551 35285"
      },
      "geometry": {
        "type": "Point",
        "coordinates": [
          -75.64127861197628,
          -0.20188627300484116
        ]
      }
    },
    {
      "type": "Feature",
      "properties": {
        "norad_id": 41549,
        "name": "GSAT0211 (GALILEO 14)",
        "group": "gnss",
        "lat": 51.75464359037577,
        "lon": -71.10658139059748,
        "alt_km": 23210.02032806164,
        "timestamp": "2025-12-11T05:00:26.552258+00:00",
        "meta_object_name": "GSAT0211 (GALILEO 14)",
        "meta_object_id": "2016-030A",
        "meta_epoch": "2025-12-07T13:40:58.264320",
        "meta_mean_motion": 1.70472997,
        "meta_eccentricity": 0.00040128,
        "meta_inclination": 55.154,
        "meta_ra_of_asc_node": 226.9659,
        "meta_arg_of_pericenter": 14.4678,
        "meta_mean_anomaly": 345.6377,
        "meta_ephemeris_type": 0,
        "meta_classification_type": "U",
        "meta_norad_cat_id": 41549,
        "meta_element_set_no": 999,
        "meta_rev_at_epoch": 5940,
        "meta_bstar": 0,
        "meta_mean_motion_dot": 2.3e-07,
        "meta_mean_motion_ddot": 0,
        "tle_line1": "1 41549U 16030A   25341.57011880  .00000023  00000+0  00000+0 0  9991",
        "tle_line2": "2 41549  55.1540 226.9659 0004012  14.4678 345.6377  1.70472997 59400"
      },
      "geometry": {
        "type": "Point",
        "coordinates": [
          -71.10658139059748,
          51.75464359037577
        ]
      }
    },
    {
      "type": "Feature",
      "properties": {
        "norad_id": 41550,
        "name": "GSAT0210 (GALILEO 13)",
        "group": "gnss",
        "lat": -54.834319430802175,
        "lon": 145.7461769286203,
        "alt_km": 23224.629868456337,
        "timestamp": "2025-12-11T05:00:26.552269+00:00",
        "meta_object_name": "GSAT0210 (GALILEO 13)",
        "meta_object_id": "2016-030B",
        "meta_epoch": "2025-12-09T00:00:58.854816",
        "meta_mean_motion": 1.70473614,
        "meta_eccentricity": 0.0001366,
        "meta_inclination": 55.1527,
        "meta_ra_of_asc_node": 226.9246,
        "meta_arg_of_pericenter": 244.5421,
        "meta_mean_anomaly": 115.531,
        "meta_ephemeris_type": 0,
        "meta_classification_type": "U",
        "meta_norad_cat_id": 41550,
        "meta_element_set_no": 999,
        "meta_rev_at_epoch": 5942,
        "meta_bstar": 0,
        "meta_mean_motion_dot": 1.3e-07,
        "meta_mean_motion_ddot": 0,
        "tle_line1": "1 41550U 16030B   25343.00068119  .00000013  00000+0  00000+0 0  9999",
        "tle_line2": "2 41550  55.1527 226.9246 0001366 244.5421 115.5310  1.70473614 59420"
      },
      "geometry": {
        "type": "Point",
        "coordinates": [
          145.7461769286203,
          -54.834319430802175
        ]
      }
    },
    {
      "type": "Feature",
      "properties": {
        "norad_id": 41586,
        "name": "BEIDOU-2 G7 (C03)",
        "group": "gnss",
        "lat": -0.5590556396742727,
        "lon": -94.29786554193964,
        "alt_km": 35804.95912269755,
        "timestamp": "2025-12-11T05:00:26.552283+00:00",
        "meta_object_name": "BEIDOU-2 G7 (C03)",
        "meta_object_id": "2016-037A",
        "meta_epoch": "2025-12-10T19:12:13.540608",
        "meta_mean_motion": 1.0026797,
        "meta_eccentricity": 0.00043812,
        "meta_inclination": 1.7526,
        "meta_ra_of_asc_node": 67.7376,
        "meta_arg_of_pericenter": 0.2505,
        "meta_mean_anomaly": 50.2876,
        "meta_ephemeris_type": 0,
        "meta_classification_type": "U",
        "meta_norad_cat_id": 41586,
        "meta_element_set_no": 999,
        "meta_rev_at_epoch": 500,
        "meta_bstar": 0,
        "meta_mean_motion_dot": -3.48e-06,
        "meta_mean_motion_ddot": 0,
        "tle_line1": "1 41586U 16037A   25344.80015672 -.00000348  00000+0  00000+0 0  9992",
        "tle_line2": "2 41586   1.7526  67.7376 0004381   0.2505  50.2876  1.00267970  5006"
      },
      "geometry": {
        "type": "Point",
        "coordinates": [
          -94.29786554193964,
          -0.5590556396742727
        ]
      }
    }
  ]
}